NORAD_CAT_ID,OBJECT_NAME,OBJECT_TYPE,EPOCH,MEAN_MOTION,ECCENTRICITY,INCLINATION,RA_OF_ASC_NODE,ARG_OF_PERICENTER,MEAN_ANOMALY,BSTAR,MEAN_MOTION_DOT,MEAN_MOTION_DDOT,TLE_LINE0,TLE_LINE1,TLE_LINE2,SEMIMAJOR_AXIS,PERIOD,APOGEE,PERIGEE,DECAYED
56453.0,STARLINK-5935,PAYLOAD,2024-03-24 13:27:18,14.983589,0.0002867,69.9995,147.6747,270.2354,89.8477,3.7969e-06,-4.8e-07,0.0,0 STARLINK-5935,1 56453U 23064F   24084.56063224 -.00000048  00000-0  37969-5 0  9996,2 56453  69.9995 147.6747 0002867 270.2354  89.8477 14.98358900 48488,6950.104,96.105,573.961,569.976,0.0
56453.0,STARLINK-5935,PAYLOAD,2024-03-24 21:27:59,14.98349389,0.0001521,70.0033,146.8336,277.195,82.9036,-0.00021149,-2.616e-05,0.0,0 STARLINK-5935,1 56453U 23064F   24084.89444380 -.00002616  00000-0 -21149-3 0  9993,2 56453  70.0033 146.8336 0001521 277.1950  82.9036 14.98349389 48535,6950.133,96.106,573.055,570.941,0.0
56453.0,STARLINK-5935,PAYLOAD,2024-03-25 05:28:41,14.98308686,0.0002563,70.0007,145.9929,260.1849,99.9021,-4.9857e-05,-6.87e-06,0.0,0 STARLINK-5935,1 56453U 23064F   24085.22826180 -.00000687  00000-0 -49857-4 0  9996,2 56453  70.0007 145.9929 0002563 260.1849  99.9021 14.98308686 48582,6950.259,96.108,573.905,570.342,0.0
56453.0,STARLINK-5935,PAYLOAD,2024-03-25 13:29:21,14.98317344,0.0002485,69.9999,145.1506,264.1871,95.9004,1.8536e-05,1.28e-06,0.0,0 STARLINK-5935,1 56453U 23064F   24085.56205787  .00000128  00000-0  18536-4 0  9995,2 56453  69.9999 145.1506 0002485 264.1871  95.9004 14.98317344 48638,6950.232,96.108,573.824,570.37,0.0
56453.0,STARLINK-5935,PAYLOAD,2024-03-25 21:30:02,14.98320632,0.0003015,70.0,144.3065,269.3969,90.6845,-0.00011318,-1.443e-05,0.0,0 STARLINK-5935,1 56453U 23064F   24085.89585949 -.00001443  00000-0 -11318-3 0  9995,2 56453  70.0000 144.3065 0003015 269.3969  90.6845 14.98320632 48325,6950.222,96.108,574.182,569.991,0.0
56453.0,STARLINK-5935,PAYLOAD,2024-03-26 13:31:23,14.98316539,0.0002391,69.9999,142.6239,256.2477,103.8416,-0.00023483,-2.893e-05,0.0,0 STARLINK-5935,1 56453U 23064F   24086.56347163 -.00002893  00000-0 -23483-3 0  9990,2 56453  69.9999 142.6239 0002391 256.2477 103.8416 14.98316539 48780,6950.235,96.108,573.761,570.438,0.0
56453.0,STARLINK-5935,PAYLOAD,2024-03-26 21:32:03,14.98329487,0.0002868,69.9994,141.7829,275.1293,84.9539,-0.00022035,-2.721e-05,0.0,0 STARLINK-5935,1 56453U 23064F   24086.89726483 -.00002721  00000-0 -22035-3 0  9994,2 56453  69.9994 141.7829 0002868 275.1293  84.9539 14.98329487 48472,6950.194,96.107,574.053,570.066,0.0
56453.0,STARLINK-5935,PAYLOAD,2024-03-27 05:32:44,14.98315254,0.0002917,69.9993,140.941,266.3402,93.7423,0.00017871,2.039e-05,0.0,0 STARLINK-5935,1 56453U 23064F   24087.23106505  .00002039  00000-0  17871-3 0  9992,2 56453  69.9993 140.9410 0002917 266.3402  93.7423 14.98315254 48889,6950.238,96.108,574.131,570.076,0.0
56453.0,STARLINK-5935,PAYLOAD,2024-03-27 13:33:24,14.98322887,0.0002754,69.9993,140.0998,264.4001,95.6843,0.00016321,1.855e-05,0.0,0 STARLINK-5935,1 56453U 23064F   24087.56486317  .00001855  00000-0  16321-3 0  9994,2 56453  69.9993 140.0998 0002754 264.4001  95.6843 14.98322887 48577,6950.215,96.107,573.994,570.166,0.0
56453.0,STARLINK-5935,PAYLOAD,2024-03-28 05:34:44,14.98329897,0.0003009,69.9989,138.4167,268.7689,91.3125,0.00032097,3.739e-05,0.0,0 STARLINK-5935,1 56453U 23064F   24088.23245493  .00003739  00000-0  32097-3 0  9998,2 56453  69.9989 138.4167 0003009 268.7689  91.3125 14.98329897 49030,6950.193,96.107,574.15,569.967,0.0
56453.0,STARLINK-5935,PAYLOAD,2024-03-28 11:59:15,14.98337943,0.0003017,69.9989,137.7434,268.9898,91.0916,0.0003249,3.787e-05,0.0,0 STARLINK-5935,1 56453U 23064F   24088.49948918  .00003787  00000-0  32490-3 0  9998,2 56453  69.9989 137.7434 0003017 268.9898  91.0916 14.98337943 48712,6950.168,96.106,574.13,569.936,0.0
56453.0,STARLINK-5935,PAYLOAD,2024-03-28 19:59:56,14.98336834,0.0003082,69.9987,136.9017,268.546,91.5346,0.00021491,2.473e-05,0.0,0 STARLINK-5935,1 56453U 23064F   24088.83329140  .00002473  00000-0  21491-3 0  9996,2 56453  69.9987 136.9017 0003082 268.5460  91.5346 14.98336834 48766,6950.172,96.107,574.179,569.895,0.0
56453.0,STARLINK-5935,PAYLOAD,2024-03-29 12:01:17,14.98330908,0.0002607,69.9999,135.2191,263.3159,96.7703,6.1489e-06,-2e-07,0.0,0 STARLINK-5935,1 56453U 23064F   24089.50089915 -.00000020  00000-0  61489-5 0  9994,2 56453  69.9999 135.2191 0002607 263.3159  96.7703 14.98330908 49226,6950.19,96.107,573.867,570.243,0.0
56453.0,STARLINK-5935,PAYLOAD,2024-03-29 13:37:25,14.98335696,0.0002951,69.9992,135.0501,270.4376,89.6445,-1.8277e-06,-1.15e-06,0.0,0 STARLINK-5935,1 56453U 23064F   24089.56765603 -.00000115  00000-0 -18277-5 0  9998,2 56453  69.9992 135.0501 0002951 270.4376  89.6445 14.98335696 48877,6950.175,96.107,574.091,569.989,0.0
56453.0,STARLINK-5935,PAYLOAD,2024-03-29 20:01:57,14.98336808,0.0002973,69.9992,134.3767,271.1113,88.9705,-7.5219e-06,-1.83e-06,0.0,0 STARLINK-5935,1 56453U 23064F   24089.83469411 -.00000183  00000-0 -75219-5 0  9990,2 56453  69.9992 134.3767 0002973 271.1113  88.9705 14.98336808 48916,6950.172,96.107,574.103,569.971,0.0
56453.0,STARLINK-5935,PAYLOAD,2024-03-30 05:38:45,14.98340818,0.000305,69.9989,133.3668,270.3814,89.6996,-0.00010236,-1.314e-05,0.0,0 STARLINK-5935,1 56453U 23064F   24090.23525088 -.00001314  00000-0 -10236-3 0  9992,2 56453  69.9989 133.3668 0003050 270.3814  89.6996 14.98340818 49330,6950.159,96.106,574.144,569.905,0.0
56453.0,STARLINK-5935,PAYLOAD,2024-03-30 12:03:18,14.98330073,0.0002833,69.9998,132.6939,267.9944,92.089,3.7759e-05,3.58e-06,0.0,0 STARLINK-5935,1 56453U 23064F   24090.50229240  .00000358  00000-0  37759-4 0  9998,2 56453  69.9998 132.6939 0002833 267.9944  92.0890 14.98330073 49015,6950.193,96.107,574.027,570.089,0.0
56453.0,STARLINK-5935,PAYLOAD,2024-03-30 20:03:58,14.9834384,0.000263,70.0001,131.8526,273.2579,86.8279,-0.00020686,-2.561e-05,0.0,0 STARLINK-5935,1 56453U 23064F   24090.83608858 -.00002561  00000-0 -20686-3 0  9990,2 56453  70.0001 131.8526 0002630 273.2579  86.8279 14.98343840 49068,6950.15,96.106,573.843,570.187,0.0
56453.0,STARLINK-5935,PAYLOAD,2024-03-31 05:40:46,14.98331219,0.0002989,69.9991,130.843,271.2311,88.8506,3.1524e-06,-5.5e-07,0.0,0 STARLINK-5935,1 56453U 23064F   24091.23664915 -.00000055  00000-0  31524-5 0  9991,2 56453  69.9991 130.8430 0002989 271.2311  88.8506 14.98331219 49483,6950.189,96.107,574.132,569.977,0.0
56453.0,STARLINK-5935,PAYLOAD,2024-03-31 12:05:20,14.98303836,0.0002785,69.9998,130.1692,268.7846,91.2994,-7.2889e-05,-9.62e-06,0.0,0 STARLINK-5935,1 56453U 23064F   24091.50370719 -.00000962  00000-0 -72889-4 0  9993,2 56453  69.9998 130.1692 0002785 268.7846  91.2994 14.98303836 49529,6950.274,96.109,574.074,570.203,0.0
56453.0,STARLINK-5935,PAYLOAD,2024-03-31 20:05:59,14.98321441,0.0002942,69.9988,129.3274,270.4865,89.5957,0.00017257,1.966e-05,0.0,0 STARLINK-5935,1 56453U 23064F   24091.83749075  .00001966  00000-0  17257-3 0  9994,2 56453  69.9988 129.3274 0002942 270.4865  89.5957 14.98321441 49576,6950.219,96.108,574.129,570.04,0.0
56453.0,STARLINK-5935,PAYLOAD,2024-04-01 04:06:39,14.98332139,0.0003181,69.9994,128.4858,271.994,88.0855,1.6014e-05,9.8e-07,0.0,0 STARLINK-5935,1 56453U 23064F   24092.17128589  .00000098  00000-0  16014-4 0  9999,2 56453  69.9994 128.4858 0003181 271.9940  88.0855 14.98332139 49620,6950.186,96.107,574.262,569.84,0.0
56453.0,STARLINK-5935,PAYLOAD,2024-04-01 12:07:19,14.98331908,0.0002902,69.9992,127.6443,269.1534,90.9292,3.4006e-05,3.13e-06,0.0,0 STARLINK-5935,1 56453U 23064F   24092.50508511  .00000313  00000-0  34006-4 0  9994,2 56453  69.9992 127.6443 0002902 269.1534  90.9292 14.98331908 49313,6950.187,96.107,574.069,570.035,0.0
56453.0,STARLINK-5935,PAYLOAD,2024-04-02 04:08:40,14.98327037,0.0003179,69.9988,125.9606,272.939,87.1405,1.7073e-05,1.11e-06,0.0,0 STARLINK-5935,1 56453U 23064F   24093.17268725  .00000111  00000-0  17073-4 0  9999,2 56453  69.9988 125.9606 0003179 272.9390  87.1405 14.98327037 49771,6950.202,96.107,574.277,569.858,0.0
56453.0,STARLINK-5935,PAYLOAD,2024-04-02 12:09:20,14.98329171,0.0003108,69.9987,125.1182,271.9494,88.1309,-9.7348e-06,-2.09e-06,0.0,0 STARLINK-5935,1 56453U 23064F   24093.50648672 -.00000209  00000-0 -97348-5 0  9993,2 56453  69.9987 125.1182 0003108 271.9494  88.1309 14.98329171 49468,6950.195,96.107,574.221,569.9,0.0
56453.0,STARLINK-5935,PAYLOAD,2024-04-03 12:11:21,14.98328703,0.0003139,69.9984,122.5936,271.0126,89.0673,-4.2483e-05,-6e-06,0.0,0 STARLINK-5935,1 56453U 23064F   24094.50788792 -.00000600  00000-0 -42483-4 0  9996,2 56453  69.9984 122.5936 0003139 271.0126  89.0673 14.98328703 49970,6950.197,96.107,574.244,569.88,0.0
56453.0,STARLINK-5935,PAYLOAD,2024-04-03 18:35:53,14.98327885,0.000315,69.9984,121.9203,270.7334,89.3464,-1.9762e-05,-3.29e-06,0.0,0 STARLINK-5935,1 56453U 23064F   24094.77492797 -.00000329  00000-0 -19762-4 0  9994,2 56453  69.9984 121.9203 0003150 270.7334  89.3464 14.98327885 49656,6950.199,96.107,574.254,569.875,0.0
56453.0,STARLINK-5935,PAYLOAD,2024-04-04 10:37:14,14.9832813,0.0003172,69.9982,120.237,270.2673,89.8123,1.0532e-05,3.3e-07,0.0,0 STARLINK-5935,1 56453U 23064F   24095.44252777  .00000033  00000-0  10532-4 0  9997,2 56453  69.9982 120.2370 0003172 270.2673  89.8123 14.98328130 49758,6950.199,96.107,574.268,569.859,0.0
56453.0,STARLINK-5935,PAYLOAD,2024-04-04 18:37:53,14.98342855,0.0003279,69.9986,119.3959,268.5422,91.5362,0.00018456,2.111e-05,0.0,0 STARLINK-5935,1 56453U 23064F   24095.77631199  .00002111  00000-0  18456-3 0  9993,2 56453  69.9986 119.3959 0003279 268.5422  91.5362 14.98342855 50166,6950.153,96.106,574.297,569.739,0.0
56453.0,STARLINK-5935,PAYLOAD,2024-04-05 10:39:13,14.98347504,0.0003041,69.9982,117.7115,266.8912,93.1899,0.00020209,2.32e-05,0.0,0 STARLINK-5935,1 56453U 23064F   24096.44390245  .00002320  00000-0  20209-3 0  9993,2 56453  69.9982 117.7115 0003041 266.8912  93.1899 14.98347504 49909,6950.139,96.106,574.117,569.89,0.0
